NORAD_CAT_ID,OBJECT_NAME,OBJECT_TYPE,EPOCH,MEAN_MOTION,ECCENTRICITY,INCLINATION,RA_OF_ASC_NODE,ARG_OF_PERICENTER,MEAN_ANOMALY,BSTAR,MEAN_MOTION_DOT,MEAN_MOTION_DDOT,TLE_LINE0,TLE_LINE1,TLE_LINE2,SEMIMAJOR_AXIS,PERIOD,APOGEE,PERIGEE,DECAYED
54784.0,STARLINK-5442,PAYLOAD,2023-12-13 15:01:56,15.08849789,0.0001375,53.2169,111.8168,74.3415,285.7729,2.941e-05,1.8e-06,0.0,0 STARLINK-5442,1 54784U 22175AC  23347.62634609  .00000180  00000-0  29410-4 0  9999,2 54784  53.2169 111.8168 0001375  74.3415 285.7729 15.08849789 54415,6917.85,95.437,540.667,538.764,0.0
54784.0,STARLINK-5442,PAYLOAD,2023-12-14 11:41:57,15.0881399,0.0001643,53.2179,107.9482,108.0227,252.0944,0.00038997,5.919e-05,0.0,0 STARLINK-5442,1 54784U 22175AC  23348.48747074  .00005919  00000-0  38997-3 0  9999,2 54784  53.2179 107.9482 0001643 108.0227 252.0944 15.08813990 54540,6917.96,95.439,540.962,538.688,0.0
54784.0,STARLINK-5442,PAYLOAD,2023-12-14 13:17:20,15.08840422,0.0001466,53.2177,107.6517,94.947,265.169,3.5307e-05,2.74e-06,0.0,0 STARLINK-5442,1 54784U 22175AC  23348.55370981  .00000274  00000-0  35307-4 0  9998,2 54784  53.2177 107.6517 0001466  94.9470 265.1690 15.08840422 56714,6917.879,95.438,540.758,538.73,0.0
54784.0,STARLINK-5442,PAYLOAD,2023-12-14 14:52:43,15.08841485,0.0001479,53.2178,107.3531,95.2297,264.8864,4.1246e-05,3.69e-06,0.0,0 STARLINK-5442,1 54784U 22175AC  23348.61994873  .00000369  00000-0  41246-4 0  9991,2 54784  53.2178 107.3531 0001479  95.2297 264.8864 15.08841485 54563,6917.876,95.437,540.764,538.718,0.0
54784.0,STARLINK-5442,PAYLOAD,2023-12-15 14:43:30,15.08838907,0.0001345,53.2174,102.8917,92.114,268.0006,-8.4783e-06,-4.23e-06,0.0,0 STARLINK-5442,1 54784U 22175AC  23349.61355246 -.00000423  00000-0 -84783-5 0  9994,2 54784  53.2174 102.8917 0001345  92.1140 268.0006 15.08838907 56877,6917.884,95.438,540.679,538.818,0.0
54784.0,STARLINK-5442,PAYLOAD,2023-12-16 12:58:54,15.08846965,0.0001394,53.2164,98.7274,110.0754,250.0388,8.3738e-05,1.045e-05,0.0,0 STARLINK-5442,1 54784U 22175AC  23350.54090682  .00001045  00000-0  83738-4 0  9995,2 54784  53.2164  98.7274 0001394 110.0754 250.0388 15.08846965 57014,6917.859,95.437,540.688,538.76,0.0
54784.0,STARLINK-5442,PAYLOAD,2023-12-17 11:14:18,15.08843569,0.000197,53.2164,94.5646,137.2881,222.8265,-3.0182e-05,-7.69e-06,0.0,0 STARLINK-5442,1 54784U 22175AC  23351.46827355 -.00000769  00000-0 -30182-4 0  9991,2 54784  53.2164  94.5646 0001970 137.2881 222.8265 15.08843569 54995,6917.869,95.437,541.097,538.372,0.0
54784.0,STARLINK-5442,PAYLOAD,2023-12-17 14:25:04,15.08844156,0.000125,53.2173,93.9723,90.1796,269.934,0.00012782,1.747e-05,0.0,0 STARLINK-5442,1 54784U 22175AC  23351.60075184  .00001747  00000-0  12782-3 0  9992,2 54784  53.2173  93.9723 0001250  90.1796 269.9340 15.08844156 57179,6917.868,95.437,540.597,538.868,0.0
54784.0,STARLINK-5442,PAYLOAD,2023-12-18 14:15:51,15.08855346,0.0001253,53.2171,89.5143,89.6682,270.4453,0.00018249,2.619e-05,0.0,0 STARLINK-5442,1 54784U 22175AC  23352.59434184  .00002619  00000-0  18249-3 0  9993,2 54784  53.2171  89.5143 0001253  89.6682 270.4453 15.08855346 57326,6917.833,95.437,540.565,538.832,0.0
54784.0,STARLINK-5442,PAYLOAD,2023-12-19 10:55:53,15.08843436,0.0001679,53.2188,85.646,71.0348,289.0826,1.9805e-05,2.7e-07,0.0,0 STARLINK-5442,1 54784U 22175AC  23353.45547524  .00000027  00000-0  19805-4 0  9993,2 54784  53.2188  85.6460 0001679  71.0348 289.0826 15.08843436 55290,6917.87,95.437,540.896,538.573,0.0
54784.0,STARLINK-5442,PAYLOAD,2023-12-19 14:06:39,15.08846197,0.0001611,53.2183,85.0552,73.21,286.9069,5.07e-05,5.19e-06,0.0,0 STARLINK-5442,1 54784U 22175AC  23353.58795274  .00000519  00000-0  50700-4 0  9999,2 54784  53.2183  85.0552 0001611  73.2100 286.9069 15.08846197 57471,6917.861,95.437,540.841,538.612,0.0
54784.0,STARLINK-5442,PAYLOAD,2023-12-20 10:46:40,15.08836612,0.0001778,53.2183,81.188,74.0973,286.0215,-0.00012126,-2.217e-05,0.0,0 STARLINK-5442,1 54784U 22175AC  23354.44908553 -.00002217  00000-0 -12126-3 0  9999,2 54784  53.2183  81.1880 0001778  74.0973 286.0215 15.08836612 55443,6917.891,95.438,540.986,538.526,0.0
54784.0,STARLINK-5442,PAYLOAD,2023-12-20 12:22:04,15.08837488,0.0001537,53.2177,80.8948,85.4831,274.6336,-0.00011419,-2.105e-05,0.0,0 STARLINK-5442,1 54784U 22175AC  23354.51532436 -.00002105  00000-0 -11419-3 0  9990,2 54784  53.2177  80.8948 0001537  85.4831 274.6336 15.08837488 57619,6917.888,95.438,540.816,538.69,0.0
54784.0,STARLINK-5442,PAYLOAD,2023-12-21 12:12:50,15.08845683,0.0001632,53.2173,76.4304,83.7328,276.385,0.00019489,2.815e-05,0.0,0 STARLINK-5442,1 54784U 22175AC  23355.50892102  .00002815  00000-0  19489-3 0  9990,2 54784  53.2173  76.4304 0001632  83.7328 276.3850 15.08845683 55603,6917.863,95.437,540.857,538.599,0.0
54784.0,STARLINK-5442,PAYLOAD,2023-12-22 12:03:38,15.08841595,0.0001596,53.2174,71.9672,104.5415,255.5754,0.00013656,1.886e-05,0.0,0 STARLINK-5442,1 54784U 22175AC  23356.50252349  .00001886  00000-0  13656-3 0  9991,2 54784  53.2174  71.9672 0001596 104.5415 255.5754 15.08841595 55756,6917.876,95.437,540.845,538.636,0.0
54784.0,STARLINK-5442,PAYLOAD,2023-12-23 10:19:01,15.0884368,0.0001725,53.218,67.8092,109.7643,250.3535,-1.8061e-05,-5.76e-06,0.0,0 STARLINK-5442,1 54784U 22175AC  23357.42988269 -.00000576  00000-0 -18061-4 0  9993,2 54784  53.2180  67.8092 0001725 109.7643 250.3535 15.08843680 58050,6917.869,95.437,540.927,538.541,0.0
54784.0,STARLINK-5442,PAYLOAD,2023-12-24 03:48:16,15.08842945,0.0001683,53.2179,64.5383,102.896,257.222,8.8051e-05,1.114e-05,0.0,0 STARLINK-5442,1 54784U 22175AC  23358.15852478  .00001114  00000-0  88051-4 0  9999,2 54784  53.2179  64.5383 0001683 102.8960 257.2220 15.08842945 56007,6917.871,95.437,540.901,538.572,0.0
54784.0,STARLINK-5442,PAYLOAD,2023-12-24 10:09:49,15.0884195,0.0001605,53.2176,63.3472,102.6771,257.4401,6.0718e-05,6.78e-06,0.0,0 STARLINK-5442,1 54784U 22175AC  23358.42348529  .00000678  00000-0  60718-4 0  9990,2 54784  53.2176  63.3472 0001605 102.6771 257.4401 15.08841950 58204,6917.874,95.437,540.85,538.629,0.0
54784.0,STARLINK-5442,PAYLOAD,2023-12-25 11:35:59,15.08846823,0.0001462,53.2172,58.5902,83.6996,276.4162,0.00012861,1.76e-05,0.0,0 STARLINK-5442,1 54784U 22175AC  23359.48332372  .00001760  00000-0  12861-3 0  9994,2 54784  53.2172  58.5902 0001462  83.6996 276.4162 15.08846823 56209,6917.86,95.437,540.736,538.713,0.0
54784.0,STARLINK-5442,PAYLOAD,2023-12-26 11:26:46,15.08850766,0.0001991,53.2192,54.131,66.1316,293.9884,-0.00014002,-2.517e-05,0.0,0 STARLINK-5442,1 54784U 22175AC  23360.47693003 -.00002517  00000-0 -14002-3 0  9998,2 54784  53.2192  54.1310 0001991  66.1316 293.9884 15.08850766 56357,6917.847,95.437,541.09,538.335,0.0
54784.0,STARLINK-5442,PAYLOAD,2023-12-26 13:02:09,15.08843944,0.0001513,53.2187,53.831,94.57,265.5465,9.3989e-05,1.208e-05,0.0,0 STARLINK-5442,1 54784U 22175AC  23360.54316665  .00001208  00000-0  93989-4 0  9998,2 54784  53.2187  53.8310 0001513  94.5700 265.5465 15.08843944 58520,6917.868,95.437,540.78,538.687,0.0
54784.0,STARLINK-5442,PAYLOAD,2023-12-27 09:42:10,15.08845849,0.0001531,53.2175,49.9663,91.3954,268.7214,2.2964e-05,7.8e-07,0.0,0 STARLINK-5442,1 54784U 22175AC  23361.40428724  .00000078  00000-0  22964-4 0  9993,2 54784  53.2175  49.9663 0001531  91.3954 268.7214 15.08845849 58657,6917.863,95.437,540.787,538.668,0.0
54784.0,STARLINK-5442,PAYLOAD,2023-12-28 03:11:25,15.08839851,0.0001529,53.2174,46.6965,83.1119,277.0047,6.542e-05,7.53e-06,0.0,0 STARLINK-5442,1 54784U 22175AC  23362.13293091  .00000753  00000-0  65420-4 0  9995,2 54784  53.2174  46.6965 0001529  83.1119 277.0047 15.08839851 56600,6917.881,95.438,540.804,538.688,0.0
54784.0,STARLINK-5442,PAYLOAD,2023-12-28 09:32:57,15.08839874,0.0001525,53.2174,45.5064,84.6566,275.46,5.3318e-05,5.61e-06,0.0,0 STARLINK-5442,1 54784U 22175AC  23362.39789137  .00000561  00000-0  53318-4 0  9994,2 54784  53.2174  45.5064 0001525  84.6566 275.4600 15.08839874 58802,6917.881,95.438,540.801,538.691,0.0
54784.0,STARLINK-5442,PAYLOAD,2023-12-29 09:23:44,15.08842464,0.0001441,53.2184,41.0475,65.8596,294.2547,8.1704e-05,1.013e-05,0.0,0 STARLINK-5442,1 54784U 22175AC  23363.39149072  .00001013  00000-0  81704-4 0  9996,2 54784  53.2184  41.0475 0001441  65.8596 294.2547 15.08842464 56795,6917.873,95.437,540.735,538.741,0.0
54784.0,STARLINK-5442,PAYLOAD,2023-12-29 23:42:13,15.08836141,0.0001485,53.2186,38.371,88.9105,271.2058,6.5442e-05,7.54e-06,0.0,0 STARLINK-5442,1 54784U 22175AC  23363.98765311  .00000754  00000-0  65442-4 0  9993,2 54784  53.2186  38.3710 0001485  88.9105 271.2058 15.08836141 56885,6917.892,95.438,540.784,538.73,0.0
54784.0,STARLINK-5442,PAYLOAD,2023-12-30 07:39:08,15.0884332,0.0001743,53.2184,36.8845,104.4134,255.7052,0.00011632,1.564e-05,0.0,0 STARLINK-5442,1 54784U 22175AC  23364.31884729  .00001564  00000-0  11632-3 0  9997,2 54784  53.2184  36.8845 0001743 104.4134 255.7052 15.08843320 56932,6917.87,95.437,540.941,538.529,0.0
54784.0,STARLINK-5442,PAYLOAD,2023-12-31 01:08:23,15.0884066,0.000168,53.2193,33.6154,81.5169,278.6013,4.1979e-05,3.8e-06,0.0,0 STARLINK-5442,1 54784U 22175AC  23365.04749380  .00000380  00000-0  41979-4 0  9994,2 54784  53.2193  33.6154 0001680  81.5169 278.6013 15.08840660 57041,6917.878,95.438,540.906,538.581,0.0
54784.0,STARLINK-5442,PAYLOAD,2023-12-31 07:29:56,15.08838058,0.0001612,53.2186,32.4257,103.4966,256.6206,9.9834e-06,-1.29e-06,0.0,0 STARLINK-5442,1 54784U 22175AC  23365.31245600 -.00000129  00000-0  99834-5 0  9996,2 54784  53.2186  32.4257 0001612 103.4966 256.6206 15.08838058 59240,6917.886,95.438,540.866,538.636,0.0
54784.0,STARLINK-5442,PAYLOAD,2024-01-01 07:20:43,15.08837948,0.0001557,53.2176,27.9601,98.0118,262.1051,-6.5961e-06,-3.93e-06,0.0,0 STARLINK-5442,1 54784U 22175AC  24001.30605848 -.00000393  00000-0 -65961-5 0  9995,2 54784  53.2176  27.9601 0001557  98.0118 262.1051 15.08837948 57231,6917.887,95.438,540.829,538.675,0.0
